{
"type": "FeatureCollection",
"name": "SELECT",
"xy_coordinate_resolution": 1e-06,
"features": [
{"type":"Feature","properties":{"map_unit":"PZpCm","identity_confidence":"certain","source_map":"map52","source_unit":"52|pms1"},"geometry":{"type":"MultiPolygon","coordinates":[[[[-84.4706,33.872245],[-84.4706,33.868877],[-84.468412,33.870863],[-84.46189,33.873941],[-84.455934,33.87566],[-84.448977,33.87832],[-84.444056,33.879585],[-84.443233,33.879652],[-84.442334,33.879319],[-84.442055,33.879095],[-84.442241,33.877887],[-84.442983,33.877131],[-84.446792,33.875202],[-84.448972,33.874197],[-84.455018,33.870457],[-84.457377,33.868028],[-84.461622,33.864926],[-84.465588,33.862595],[-84.469899,33.8586],[-84.45809,33.8586],[-84.445544,33.870633],[-84.44206,33.873479],[-84.44156,33.875881],[-84.439857,33.879065],[-84.438515,33.880797],[-84.437705,33.881613],[-84.434444,33.883596],[-84.425644,33.888167],[-84.415133,33.894768],[-84.39962,33.907435],[-84.386485,33.914695],[-84.382001,33.917641],[-84.379493,33.919706],[-84.379183,33.921334],[-84.394994,33.914141],[-84.404801,33.909156],[-84.419149,33.900619],[-84.429739,33.893505],[-84.443543,33.885664],[-84.459342,33.878197],[-84.4706,33.872245]]]]}},
{"type":"Feature","properties":{"map_unit":"PZpCg","identity_confidence":"certain","source_map":"map52","source_unit":"52|gr1b"},"geometry":{"type":"MultiPolygon","coordinates":[[[[-84.34683,33.8586],[-84.333583,33.8586],[-84.333049,33.859868],[-84.331979,33.861536],[-84.332006,33.863196],[-84.33099,33.867619],[-84.333706,33.866559],[-84.342072,33.861712],[-84.34683,33.8586]]]]}},
{"type":"Feature","properties":{"map_unit":"PZpCm","identity_confidence":"certain","source_map":"map52","source_unit":"52|mm3"},"geometry":{"type":"MultiPolygon","coordinates":[[[[-84.4706,33.939001],[-84.4706,33.93519],[-84.470121,33.935967],[-84.469371,33.93632],[-84.466818,33.939505],[-84.466255,33.940774],[-84.466241,33.94186],[-84.466797,33.942258],[-84.467618,33.942019],[-84.469385,33.940846],[-84.469512,33.940271],[-84.4706,33.939001]]]]}},
{"type":"Feature","properties":{"map_unit":"PZpCm","identity_confidence":"certain","source_map":"map52","source_unit":"52|mm1"},"geometry":{"type":"MultiPolygon","coordinates":[[[[-84.434813,33.98011],[-84.434272,33.980602],[-84.433508,33.981367],[-84.43833,33.980642],[-84.441266,33.98076],[-84.442407,33.981547],[-84.442796,33.980531],[-84.448843,33.976444],[-84.452633,33.97302],[-84.452621,33.972274],[-84.452065,33.97188],[-84.450684,33.97161],[-84.44904,33.971918],[-84.4429,33.974683],[-84.434813,33.98011]]]]}},
{"type":"Feature","properties":{"map_unit":"PZpCm","identity_confidence":"certain","source_map":"map52","source_unit":"52|mm3"},"geometry":{"type":"MultiPolygon","coordinates":[[[[-84.4706,33.959838],[-84.4706,33.953238],[-84.465866,33.95556],[-84.460317,33.957847],[-84.455094,33.960557],[-84.451075,33.962558],[-84.443346,33.96878],[-84.440917,33.971782],[-84.440927,33.972289],[-84.442088,33.971934],[-84.462592,33.960866],[-84.463589,33.960835],[-84.463842,33.961598],[-84.467727,33.959715],[-84.468632,33.960331],[-84.470546,33.959795],[-84.4706,33.959838]]]]}},
{"type":"Feature","properties":{"map_unit":"PZpCm","identity_confidence":"certain","source_map":"map52","source_unit":"52|mm1"},"geometry":{"type":"MultiPolygon","coordinates":[[[[-84.363679,34.019334],[-84.364675,34.021275],[-84.3653,34.021663],[-84.36681,34.021474],[-84.366837,34.020964],[-84.366163,34.019703],[-84.366139,34.018224],[-84.366468,34.017405],[-84.367959,34.016072],[-84.368194,34.014947],[-84.367363,34.013273],[-84.367871,34.010803],[-84.367774,34.009029],[-84.367284,34.008518],[-84.366526,34.008298],[-84.36548,34.009572],[-84.36358,34.017436],[-84.363679,34.019334]]]]}},
{"type":"Feature","properties":{"map_unit":"PZpCm","identity_confidence":"certain","source_map":"map52","source_unit":"52|mm1"},"geometry":{"type":"MultiPolygon","coordinates":[[[[-84.396614,34.02651],[-84.397591,34.027366],[-84.398766,34.027687],[-84.400549,34.027381],[-84.405173,34.02418],[-84.409304,34.02035],[-84.410515,34.018792],[-84.411638,34.016076],[-84.41152,34.015221],[-84.411138,34.015001],[-84.40818,34.014973],[-84.408503,34.013764],[-84.414769,34.01014],[-84.416052,34.008639],[-84.417139,34.007875],[-84.418002,34.008155],[-84.418463,34.008891],[-84.421481,34.008455],[-84.426827,34.003409],[-84.429925,33.999644],[-84.433047,33.997148],[-84.434857,33.994432],[-84.434846,33.993801],[-84.433874,33.993352],[-84.432513,33.99423],[-84.428601,33.998571],[-84.424794,34.001083],[-84.424449,34.001029],[-84.424254,33.999661],[-84.423117,33.999613],[-84.418246,34.004199],[-84.416762,34.005997],[-84.415533,34.006521],[-84.413324,34.006037],[-84.409368,34.008028],[-84.407455,34.008682],[-84.407016,34.007202],[-84.405637,34.006985],[-84.404063,34.007404],[-84.404253,34.006483],[-84.414646,33.998916],[-84.434993,33.986434],[-84.439835,33.983793],[-84.436067,33.984978],[-84.43239,33.984764],[-84.431245,33.984452],[-84.430602,33.983521],[-84.425859,33.987147],[-84.419873,33.990889],[-84.414184,33.996059],[-84.406649,34.00182],[-84.404605,34.002953],[-84.397292,34.005707],[-84.391654,34.009782],[-84.390557,34.009967],[-84.387452,34.009372],[-84.384904,34.009228],[-84.383394,34.010252],[-84.381078,34.013272],[-84.380725,34.01444],[-84.380697,34.015591],[-84.380996,34.015863],[-84.381644,34.015801],[-84.382107,34.014708],[-84.383053,34.013667],[-84.385294,34.01192],[-84.38584,34.011742],[-84.387535,34.012235],[-84.38849,34.01383],[-84.388346,34.015495],[-84.387246,34.017747],[-84.385376,34.019791],[-84.384065,34.022461],[-84.385095,34.02398],[-84.387749,34.023071],[-84.389679,34.02094],[-84.392364,34.019728],[-84.394454,34.017913],[-84.395229,34.018323],[-84.393777,34.021509],[-84.393951,34.023683],[-84.39572,34.024649],[-84.396614,34.02651]]]]}},
{"type":"Feature","properties":{"map_unit":"PZpCm","identity_confidence":"certain","source_map":"map52","source_unit":"52|gg5"},"geometry":{"type":"MultiPolygon","coordinates":[[[[-84.23737,33.8586],[-84.23737,33.859264],[-84.238654,33.8586],[-84.23737,33.8586]]]]}},
{"type":"Feature","properties":{"map_unit":"PZpCm","identity_confidence":"certain","source_map":"map52","source_unit":"52|bg1"},"geometry":{"type":"MultiPolygon","coordinates":[[[[-84.45809,33.8586],[-84.430657,33.8586],[-84.43058,33.858666],[-84.417745,33.870852],[-84.417481,33.87143],[-84.41282,33.875954],[-84.405157,33.885549],[-84.402046,33.888449],[-84.401175,33.889668],[-84.399476,33.890718],[-84.397316,33.892857],[-84.392302,33.896927],[-84.384938,33.901953],[-84.379525,33.905097],[-84.375297,33.906979],[-84.356344,33.907537],[-84.346543,33.909021],[-84.338094,33.911399],[-84.320943,33.918527],[-84.314458,33.921586],[-84.300292,33.929475],[-84.293492,33.933958],[-84.289345,33.937222],[-84.284317,33.940984],[-84.288076,33.939746],[-84.299593,33.937496],[-84.314857,33.933719],[-84.334144,33.928129],[-84.352245,33.921622],[-84.36847,33.9137],[-84.383166,33.905113],[-84.431719,33.880878],[-84.437629,33.877202],[-84.44206,33.873479],[-84.445544,33.870633],[-84.45809,33.8586]]]]}},
{"type":"Feature","properties":{"map_unit":"PZpCm","identity_confidence":"certain","source_map":"map52","source_unit":"52|pms3a"},"geometry":{"type":"MultiPolygon","coordinates":[[[[-84.380981,34.017414],[-84.382201,34.020382],[-84.384065,34.022461],[-84.385376,34.019791],[-84.387246,34.017747],[-84.388346,34.015495],[-84.38849,34.01383],[-84.387535,34.012235],[-84.38584,34.011742],[-84.385294,34.01192],[-84.383053,34.013667],[-84.382107,34.014708],[-84.381644,34.015801],[-84.380996,34.015863],[-84.380981,34.017414]]]]}},
{"type":"Feature","properties":{"map_unit":"water","identity_confidence":"certain","source_map":"map52","source_unit":"52|water"},"geometry":{"type":"MultiPolygon","coordinates":[[[[-84.430602,33.983521],[-84.431245,33.984452],[-84.43239,33.984764],[-84.436067,33.984978],[-84.439835,33.983793],[-84.442686,33.982476],[-84.442407,33.981547],[-84.441266,33.98076],[-84.43833,33.980642],[-84.433508,33.981367],[-84.430602,33.983521]]]]}},
{"type":"Feature","properties":{"map_unit":"PZpCm","identity_confidence":"certain","source_map":"map52","source_unit":"52|gg4"},"geometry":{"type":"MultiPolygon","coordinates":[[[[-84.263927,33.909932],[-84.261221,33.912704],[-84.260698,33.914427],[-84.262203,33.914069],[-84.263839,33.913134],[-84.275656,33.904305],[-84.280936,33.899327],[-84.281806,33.897827],[-84.281823,33.896737],[-84.28103,33.896516],[-84.280007,33.896983],[-84.271661,33.903548],[-84.266919,33.907891],[-84.263927,33.909932]]]]}},
{"type":"Feature","properties":{"map_unit":"PZpCms","identity_confidence":"certain","source_map":"map52","source_unit":"52|q1"},"geometry":{"type":"MultiPolygon","coordinates":[[[[-84.4706,33.860699],[-84.4706,33.8586],[-84.469899,33.8586],[-84.465588,33.862595],[-84.461622,33.864926],[-84.457377,33.868028],[-84.455018,33.870457],[-84.448972,33.874197],[-84.446792,33.875202],[-84.442983,33.877131],[-84.442241,33.877887],[-84.442055,33.879095],[-84.442334,33.879319],[-84.443233,33.879652],[-84.444056,33.879585],[-84.448977,33.87832],[-84.455934,33.87566],[-84.46189,33.873941],[-84.468412,33.870863],[-84.4706,33.868877],[-84.4706,33.866535],[-84.467086,33.869623],[-84.460416,33.872854],[-84.451264,33.875606],[-84.45145,33.874455],[-84.457146,33.870548],[-84.462151,33.866187],[-84.4706,33.860699]]]]}},
{"type":"Feature","properties":{"map_unit":"PZpCms","identity_confidence":"certain","source_map":"map52","source_unit":"52|q1"},"geometry":{"type":"MultiPolygon","coordinates":[[[[-84.297142,34.02844],[-84.302806,34.02844],[-84.31725,34.024215],[-84.322718,34.022084],[-84.325787,34.020453],[-84.326962,34.0194],[-84.328224,34.017511],[-84.327557,34.017451],[-84.317362,34.022604],[-84.299408,34.027096],[-84.297142,34.02844]]]]}},
{"type":"Feature","properties":{"map_unit":"PZpCm","identity_confidence":"certain","source_map":"map52","source_unit":"52|fg2"},"geometry":{"type":"MultiPolygon","coordinates":[[[[-84.23737,33.888831],[-84.23737,33.936121],[-84.238345,33.9358],[-84.245683,33.93257],[-84.245183,33.933608],[-84.240857,33.938468],[-84.239807,33.940045],[-84.239929,33.940651],[-84.250803,33.932691],[-84.253603,33.931441],[-84.253561,33.930992],[-84.259785,33.926866],[-84.261819,33.924958],[-84.264061,33.923389],[-84.264532,33.922697],[-84.277577,33.913164],[-84.283951,33.907768],[-84.286058,33.906372],[-84.291481,33.901784],[-84.292028,33.901614],[-84.324089,33.874796],[-84.328232,33.870667],[-84.330227,33.867909],[-84.33099,33.867619],[-84.332006,33.863196],[-84.331979,33.861536],[-84.333049,33.859868],[-84.333583,33.8586],[-84.249549,33.8586],[-84.249092,33.863974],[-84.249457,33.874681],[-84.248689,33.878471],[-84.247093,33.881865],[-84.245745,33.883483],[-84.240647,33.88709],[-84.23737,33.888831]],[[-84.263839,33.913134],[-84.262203,33.914069],[-84.260698,33.914427],[-84.261221,33.912704],[-84.263927,33.909932],[-84.266919,33.907891],[-84.271661,33.903548],[-84.280007,33.896983],[-84.28103,33.896516],[-84.281823,33.896737],[-84.281806,33.897827],[-84.280936,33.899327],[-84.275656,33.904305],[-84.263839,33.913134]]]]}},
{"type":"Feature","properties":{"map_unit":"water","identity_confidence":"certain","source_map":"map52","source_unit":"52|water"},"geometry":{"type":"MultiPolygon","coordinates":[[[[-84.397297,33.995739],[-84.397128,33.997916],[-84.397789,33.998369],[-84.400192,33.998113],[-84.403663,33.996069],[-84.404903,33.994099],[-84.405022,33.993071],[-84.404535,33.992618],[-84.403253,33.992055],[-84.401601,33.991966],[-84.400029,33.992554],[-84.398808,33.993544],[-84.397297,33.995739]]]]}},
{"type":"Feature","properties":{"map_unit":"PZpCm","identity_confidence":"certain","source_map":"map52","source_unit":"52|pms7"},"geometry":{"type":"MultiPolygon","coordinates":[[[[-84.430657,33.8586],[-84.34683,33.8586],[-84.342072,33.861712],[-84.333706,33.866559],[-84.33099,33.867619],[-84.330227,33.867909],[-84.328232,33.870667],[-84.324089,33.874796],[-84.292028,33.901614],[-84.291481,33.901784],[-84.286058,33.906372],[-84.283951,33.907768],[-84.277577,33.913164],[-84.264532,33.922697],[-84.264061,33.923389],[-84.261819,33.924958],[-84.259785,33.926866],[-84.253561,33.930992],[-84.253603,33.931441],[-84.253881,33.931772],[-84.255253,33.931613],[-84.260183,33.930414],[-84.259252,33.932485],[-84.255176,33.936006],[-84.255693,33.936221],[-84.258912,33.935382],[-84.260689,33.933971],[-84.26131,33.933947],[-84.258323,33.936919],[-84.257043,33.938666],[-84.25749,33.939137],[-84.264291,33.935924],[-84.27074,33.933451],[-84.277209,33.931438],[-84.277557,33.931674],[-84.277761,33.931954],[-84.276967,33.933041],[-84.273606,33.936575],[-84.269429,33.942122],[-84.266049,33.945759],[-84.264272,33.948291],[-84.262731,33.951332],[-84.270943,33.946685],[-84.281132,33.942092],[-84.284317,33.940984],[-84.289345,33.937222],[-84.293492,33.933958],[-84.300292,33.929475],[-84.314458,33.921586],[-84.320943,33.918527],[-84.338094,33.911399],[-84.346543,33.909021],[-84.356344,33.907537],[-84.375297,33.906979],[-84.379525,33.905097],[-84.384938,33.901953],[-84.392302,33.896927],[-84.397316,33.892857],[-84.399476,33.890718],[-84.401175,33.889668],[-84.402046,33.888449],[-84.405157,33.885549],[-84.41282,33.875954],[-84.417481,33.87143],[-84.417745,33.870852],[-84.43058,33.858666],[-84.430657,33.8586]],[[-84.391018,33.873635],[-84.385566,33.876514],[-84.374029,33.880129],[-84.375587,33.878852],[-84.381722,33.876205],[-84.390575,33.87186],[-84.392489,33.871324],[-84.39262,33.870919],[-84.396086,33.869237],[-84.39646,33.869449],[-84.396665,33.869797],[-84.396385,33.870304],[-84.391018,33.873635]]]]}},
{"type":"Feature","properties":{"map_unit":"PZpCms","identity_confidence":"certain","source_map":"map52","source_unit":"52|q1"},"geometry":{"type":"MultiPolygon","coordinates":[[[[-84.382944,34.02844],[-84.385249,34.02844],[-84.384883,34.024412],[-84.385095,34.02398],[-84.384065,34.022461],[-84.382201,34.020382],[-84.380981,34.017414],[-84.380996,34.015863],[-84.380697,34.015591],[-84.380725,34.01444],[-84.381078,34.013272],[-84.380723,34.012652],[-84.380491,34.00854],[-84.379992,34.00757],[-84.378743,34.006899],[-84.377433,34.006627],[-84.375927,34.007097],[-84.37542,34.007619],[-84.375071,34.009402],[-84.373925,34.010735],[-84.372676,34.014303],[-84.371274,34.016836],[-84.367397,34.019519],[-84.367896,34.020545],[-84.368997,34.020535],[-84.370908,34.019652],[-84.374346,34.015484],[-84.376207,34.011569],[-84.3775,34.010628],[-84.377878,34.010692],[-84.378197,34.015385],[-84.382553,34.027027],[-84.382944,34.02844]]]]}},
{"type":"Feature","properties":{"map_unit":"PZpCms","identity_confidence":"certain","source_map":"map52","source_unit":"52|q1"},"geometry":{"type":"MultiPolygon","coordinates":[[[[-84.34771,33.967755],[-84.324586,33.979496],[-84.322365,33.982959],[-84.323128,33.982884],[-84.332937,33.97723],[-84.347323,33.969733],[-84.364125,33.962672],[-84.371371,33.960294],[-84.38264,33.955981],[-84.391745,33.952131],[-84.39526,33.950281],[-84.401006,33.94466],[-84.409005,33.938148],[-84.408997,33.937798],[-84.409887,33.937501],[-84.410559,33.936697],[-84.415717,33.932966],[-84.422793,33.928819],[-84.423737,33.927885],[-84.430459,33.923224],[-84.437978,33.917005],[-84.460612,33.903382],[-84.461424,33.902745],[-84.462361,33.901299],[-84.46235,33.900663],[-84.461595,33.900678],[-84.457434,33.902333],[-84.446886,33.90796],[-84.442317,33.911036],[-84.431594,33.917312],[-84.423239,33.922911],[-84.423041,33.923315],[-84.418357,33.92652],[-84.393787,33.948524],[-84.390934,33.950504],[-84.3835,33.954029],[-84.371232,33.958573],[-84.34771,33.967755]]]]}},
{"type":"Feature","properties":{"map_unit":"PZpCm","identity_confidence":"certain","source_map":"map52","source_unit":"52|gg4"},"geometry":{"type":"MultiPolygon","coordinates":[[[[-84.23737,33.859264],[-84.23737,33.888831],[-84.240647,33.88709],[-84.245745,33.883483],[-84.247093,33.881865],[-84.248689,33.878471],[-84.249457,33.874681],[-84.249092,33.863974],[-84.249549,33.8586],[-84.238654,33.8586],[-84.23737,33.859264]]]]}},
{"type":"Feature","properties":{"map_unit":"scz","identity_confidence":"certain","source_map":"map52","source_unit":"52|c1"},"geometry":{"type":"MultiPolygon","coordinates":[[[[-84.381722,33.876205],[-84.375587,33.878852],[-84.374029,33.880129],[-84.385566,33.876514],[-84.391018,33.873635],[-84.396385,33.870304],[-84.396665,33.869797],[-84.39646,33.869449],[-84.396086,33.869237],[-84.39262,33.870919],[-84.392489,33.871324],[-84.390575,33.87186],[-84.381722,33.876205]]]]}},
{"type":"Feature","properties":{"map_unit":"PZpCm","identity_confidence":"certain","source_map":"map52","source_unit":"52|gg1"},"geometry":{"type":"MultiPolygon","coordinates":[[[[-84.4706,33.866535],[-84.4706,33.860699],[-84.462151,33.866187],[-84.457146,33.870548],[-84.45145,33.874455],[-84.451264,33.875606],[-84.460416,33.872854],[-84.467086,33.869623],[-84.4706,33.866535]]]]}},
{"type":"Feature","properties":{"map_unit":"PZpCm","identity_confidence":"certain","source_map":"map52","source_unit":"52|mm3"},"geometry":{"type":"MultiPolygon","coordinates":[[[[-84.4706,34.02844],[-84.4706,34.021288],[-84.468277,34.025309],[-84.467014,34.02844],[-84.4706,34.02844]]]]}},
{"type":"Feature","properties":{"map_unit":"PZpCm","identity_confidence":"certain","source_map":"map52","source_unit":"52|pa1"},"geometry":{"type":"MultiPolygon","coordinates":[[[[-84.23737,34.02844],[-84.245314,34.02844],[-84.25027,34.025844],[-84.257037,34.022906],[-84.260719,34.020752],[-84.267516,34.015288],[-84.269874,34.012171],[-84.271479,34.009063],[-84.273015,34.00435],[-84.274552,33.996365],[-84.275343,33.994124],[-84.27704,33.990498],[-84.278453,33.988477],[-84.281564,33.985065],[-84.283195,33.983786],[-84.28817,33.980987],[-84.307109,33.974192],[-84.308131,33.97355],[-84.334773,33.963122],[-84.345519,33.959516],[-84.362343,33.954787],[-84.369921,33.951666],[-84.374891,33.948802],[-84.380385,33.944442],[-84.381057,33.943458],[-84.384512,33.940496],[-84.387953,33.936734],[-84.394447,33.930699],[-84.396145,33.929478],[-84.397156,33.928259],[-84.408273,33.919478],[-84.413979,33.915746],[-84.426498,33.908662],[-84.442176,33.897823],[-84.451045,33.893594],[-84.455117,33.891345],[-84.452833,33.890648],[-84.441398,33.896515],[-84.421533,33.907522],[-84.408133,33.915298],[-84.401142,33.919857],[-84.394906,33.92323],[-84.388119,33.926102],[-84.37547,33.92983],[-84.363451,33.934267],[-84.361957,33.935313],[-84.354382,33.939013],[-84.353433,33.939769],[-84.333944,33.950007],[-84.319983,33.95801],[-84.279761,33.979645],[-84.273643,33.984119],[-84.267613,33.989909],[-84.264376,33.994186],[-84.258667,34.003237],[-84.258055,34.003707],[-84.256055,34.007907],[-84.25121,34.015062],[-84.250525,34.015242],[-84.250037,34.014905],[-84.249864,34.012496],[-84.247124,34.013211],[-84.246809,34.010547],[-84.23737,34.012651],[-84.23737,34.02844]]]]}},
{"type":"Feature","properties":{"map_unit":"PZpCm","identity_confidence":"certain","source_map":"map52","source_unit":"52|pms3a"},"geometry":{"type":"MultiPolygon","coordinates":[[[[-84.4706,33.93519],[-84.4706,33.921096],[-84.463001,33.929704],[-84.46444,33.929398],[-84.464821,33.929682],[-84.464955,33.931337],[-84.465811,33.931158],[-84.465786,33.931729],[-84.459336,33.939943],[-84.458109,33.940639],[-84.455771,33.940557],[-84.455149,33.940334],[-84.454947,33.938507],[-84.453462,33.938176],[-84.449222,33.939318],[-84.443914,33.942191],[-84.442231,33.944217],[-84.43288,33.951838],[-84.4218,33.959072],[-84.412955,33.964329],[-84.409835,33.966775],[-84.404873,33.974171],[-84.402374,33.976779],[-84.400947,33.977762],[-84.398356,33.979029],[-84.391379,33.981084],[-84.383843,33.982719],[-84.362614,33.986251],[-84.361458,33.987039],[-84.353093,33.990635],[-84.343173,33.993785],[-84.33639,33.995331],[-84.335576,33.996052],[-84.336748,33.996203],[-84.358418,33.994644],[-84.358395,33.995216],[-84.350463,33.997999],[-84.337984,34.000347],[-84.336888,34.00061],[-84.33518,34.001659],[-84.344468,34.001621],[-84.35271,34.000836],[-84.353435,34.001],[-84.353338,34.001403],[-84.342713,34.007348],[-84.341932,34.008082],[-84.351746,34.009266],[-84.355001,34.010663],[-84.356289,34.011565],[-84.357098,34.012704],[-84.357747,34.01459],[-84.357859,34.017168],[-84.356737,34.020044],[-84.352552,34.024965],[-84.35071,34.02844],[-84.382944,34.02844],[-84.382553,34.027027],[-84.378197,34.015385],[-84.377878,34.010692],[-84.3775,34.010628],[-84.376207,34.011569],[-84.374346,34.015484],[-84.370908,34.019652],[-84.368997,34.020535],[-84.367896,34.020545],[-84.367397,34.019519],[-84.371274,34.016836],[-84.372676,34.014303],[-84.373925,34.010735],[-84.375071,34.009402],[-84.37542,34.007619],[-84.375927,34.007097],[-84.377433,34.006627],[-84.378743,34.006899],[-84.379992,34.00757],[-84.380491,34.00854],[-84.380723,34.012652],[-84.381078,34.013272],[-84.383394,34.010252],[-84.384904,34.009228],[-84.387452,34.009372],[-84.390557,34.009967],[-84.391654,34.009782],[-84.397292,34.005707],[-84.404605,34.002953],[-84.406649,34.00182],[-84.414184,33.996059],[-84.419873,33.990889],[-84.425859,33.987147],[-84.430602,33.983521],[-84.433508,33.981367],[-84.434272,33.980602],[-84.434813,33.98011],[-84.4429,33.974683],[-84.44904,33.971918],[-84.450684,33.97161],[-84.452065,33.97188],[-84.452621,33.972274],[-84.452633,33.97302],[-84.448843,33.976444],[-84.442796,33.980531],[-84.442407,33.981547],[-84.442686,33.982476],[-84.439835,33.983793],[-84.434993,33.986434],[-84.414646,33.998916],[-84.404253,34.006483],[-84.404063,34.007404],[-84.405637,34.006985],[-84.407016,34.007202],[-84.407455,34.008682],[-84.409368,34.008028],[-84.413324,34.006037],[-84.415533,34.006521],[-84.416762,34.005997],[-84.418246,34.004199],[-84.423117,33.999613],[-84.424254,33.999661],[-84.424449,34.001029],[-84.424794,34.001083],[-84.428601,33.998571],[-84.432513,33.99423],[-84.433874,33.993352],[-84.434846,33.993801],[-84.434857,33.994432],[-84.433047,33.997148],[-84.429925,33.999644],[-84.426827,34.003409],[-84.421481,34.008455],[-84.418463,34.008891],[-84.418002,34.008155],[-84.417139,34.007875],[-84.416052,34.008639],[-84.414769,34.01014],[-84.408503,34.013764],[-84.40818,34.014973],[-84.411138,34.015001],[-84.41152,34.015221],[-84.411638,34.016076],[-84.410515,34.018792],[-84.409304,34.02035],[-84.405173,34.02418],[-84.400549,34.027381],[-84.398766,34.027687],[-84.397591,34.027366],[-84.396614,34.02651],[-84.39572,34.024649],[-84.393951,34.023683],[-84.393777,34.021509],[-84.395229,34.018323],[-84.394454,34.017913],[-84.392364,34.019728],[-84.389679,34.02094],[-84.387749,34.023071],[-84.385095,34.02398],[-84.384883,34.024412],[-84.385249,34.02844],[-84.425329,34.02844],[-84.427018,34.026382],[-84.429707,34.020794],[-84.430444,34.015566],[-84.431202,34.013838],[-84.431747,34.013431],[-84.432514,34.013702],[-84.43352,34.016559],[-84.434201,34.017262],[-84.435731,34.017112],[-84.43706,34.014398],[-84.437736,34.013758],[-84.438393,34.013926],[-84.438731,34.015578],[-84.4399,34.015572],[-84.442628,34.010324],[-84.446604,33.995664],[-84.448558,33.991574],[-84.451465,33.988675],[-84.453569,33.987044],[-84.466686,33.978517],[-84.467089,33.977938],[-84.4706,33.975317],[-84.4706,33.959838],[-84.470546,33.959795],[-84.468632,33.960331],[-84.467727,33.959715],[-84.463842,33.961598],[-84.463589,33.960835],[-84.462592,33.960866],[-84.442088,33.971934],[-84.440927,33.972289],[-84.440917,33.971782],[-84.443346,33.96878],[-84.451075,33.962558],[-84.455094,33.960557],[-84.460317,33.957847],[-84.465866,33.95556],[-84.4706,33.953238],[-84.4706,33.939001],[-84.469512,33.940271],[-84.469385,33.940846],[-84.467618,33.942019],[-84.466797,33.942258],[-84.466241,33.94186],[-84.466255,33.940774],[-84.466818,33.939505],[-84.469371,33.93632],[-84.470121,33.935967],[-84.4706,33.93519]],[[-84.366837,34.020964],[-84.36681,34.021474],[-84.3653,34.021663],[-84.364675,34.021275],[-84.363679,34.019334],[-84.36358,34.017436],[-84.36548,34.009572],[-84.366526,34.008298],[-84.367284,34.008518],[-84.367774,34.009029],[-84.367871,34.010803],[-84.367363,34.013273],[-84.368194,34.014947],[-84.367959,34.016072],[-84.366468,34.017405],[-84.366139,34.018224],[-84.366163,34.019703],[-84.366837,34.020964]],[[-84.403663,33.996069],[-84.400192,33.998113],[-84.397789,33.998369],[-84.397128,33.997916],[-84.397297,33.995739],[-84.398808,33.993544],[-84.400029,33.992554],[-84.401601,33.991966],[-84.403253,33.992055],[-84.404535,33.992618],[-84.405022,33.993071],[-84.404903,33.994099],[-84.403663,33.996069]]]]}},
{"type":"Feature","properties":{"map_unit":"PZpCm","identity_confidence":"certain","source_map":"map52","source_unit":"52|pa1"},"geometry":{"type":"MultiPolygon","coordinates":[[[[-84.282425,34.02844],[-84.297142,34.02844],[-84.299408,34.027096],[-84.317362,34.022604],[-84.327557,34.017451],[-84.328224,34.017511],[-84.331551,34.015166],[-84.339656,34.010264],[-84.341932,34.008082],[-84.342713,34.007348],[-84.353338,34.001403],[-84.353435,34.001],[-84.35271,34.000836],[-84.344468,34.001621],[-84.33518,34.001659],[-84.336888,34.00061],[-84.337984,34.000347],[-84.350463,33.997999],[-84.358395,33.995216],[-84.358418,33.994644],[-84.336748,33.996203],[-84.335576,33.996052],[-84.33639,33.995331],[-84.343173,33.993785],[-84.353093,33.990635],[-84.361458,33.987039],[-84.362614,33.986251],[-84.335619,33.990086],[-84.324068,33.992343],[-84.320272,33.993584],[-84.315901,33.99552],[-84.309012,33.999089],[-84.302546,34.003398],[-84.296033,34.009147],[-84.293382,34.011233],[-84.2927,34.011468],[-84.287948,34.015645],[-84.28407,34.018376],[-84.272662,34.028074],[-84.272137,34.02844],[-84.279866,34.02844],[-84.290372,34.021121],[-84.303357,34.013869],[-84.305929,34.012648],[-84.306257,34.01287],[-84.306393,34.013233],[-84.304996,34.014946],[-84.30255,34.016864],[-84.295723,34.021097],[-84.282639,34.028252],[-84.282425,34.02844]]]]}},
{"type":"Feature","properties":{"map_unit":"PZpCm","identity_confidence":"certain","source_map":"map52","source_unit":"52|pm2"},"geometry":{"type":"MultiPolygon","coordinates":[[[[-84.23737,33.943875],[-84.23737,33.967137],[-84.24186,33.964343],[-84.24519,33.961846],[-84.246124,33.96131],[-84.257799,33.954612],[-84.262731,33.951332],[-84.264272,33.948291],[-84.266049,33.945759],[-84.269429,33.942122],[-84.273606,33.936575],[-84.276967,33.933041],[-84.277761,33.931954],[-84.277557,33.931674],[-84.277209,33.931438],[-84.27074,33.933451],[-84.264291,33.935924],[-84.25749,33.939137],[-84.257043,33.938666],[-84.258323,33.936919],[-84.26131,33.933947],[-84.260689,33.933971],[-84.258912,33.935382],[-84.255693,33.936221],[-84.255176,33.936006],[-84.259252,33.932485],[-84.260183,33.930414],[-84.255253,33.931613],[-84.253881,33.931772],[-84.253603,33.931441],[-84.250803,33.932691],[-84.239929,33.940651],[-84.239247,33.941058],[-84.23737,33.943875]]]]}},
{"type":"Feature","properties":{"map_unit":"PZpCms","identity_confidence":"certain","source_map":"map52","source_unit":"52|q1"},"geometry":{"type":"MultiPolygon","coordinates":[[[[-84.267542,34.02844],[-84.272137,34.02844],[-84.272662,34.028074],[-84.28407,34.018376],[-84.287948,34.015645],[-84.2927,34.011468],[-84.293382,34.011233],[-84.296033,34.009147],[-84.302546,34.003398],[-84.309012,33.999089],[-84.315901,33.99552],[-84.320272,33.993584],[-84.324068,33.992343],[-84.323292,33.991987],[-84.320587,33.991746],[-84.31144,33.996028],[-84.304621,33.999767],[-84.295847,34.005935],[-84.291433,34.009707],[-84.285449,34.014181],[-84.284842,34.014936],[-84.274981,34.022201],[-84.268325,34.027888],[-84.267542,34.02844]]]]}},
{"type":"Feature","properties":{"map_unit":"PZpCms","identity_confidence":"certain","source_map":"map52","source_unit":"52|q1"},"geometry":{"type":"MultiPolygon","coordinates":[[[[-84.279866,34.02844],[-84.282425,34.02844],[-84.282639,34.028252],[-84.295723,34.021097],[-84.30255,34.016864],[-84.304996,34.014946],[-84.306393,34.013233],[-84.306257,34.01287],[-84.305929,34.012648],[-84.303357,34.013869],[-84.290372,34.021121],[-84.279866,34.02844]]]]}},
{"type":"Feature","properties":{"map_unit":"PZpCm","identity_confidence":"certain","source_map":"map52","source_unit":"52|fg3"},"geometry":{"type":"MultiPolygon","coordinates":[[[[-84.4706,33.882323],[-84.4706,33.872245],[-84.459342,33.878197],[-84.443543,33.885664],[-84.429739,33.893505],[-84.419149,33.900619],[-84.404801,33.909156],[-84.394994,33.914141],[-84.379183,33.921334],[-84.379493,33.919706],[-84.382001,33.917641],[-84.386485,33.914695],[-84.39962,33.907435],[-84.415133,33.894768],[-84.425644,33.888167],[-84.434444,33.883596],[-84.437705,33.881613],[-84.438515,33.880797],[-84.439857,33.879065],[-84.44156,33.875881],[-84.44206,33.873479],[-84.437629,33.877202],[-84.431719,33.880878],[-84.383166,33.905113],[-84.36847,33.9137],[-84.352245,33.921622],[-84.334144,33.928129],[-84.314857,33.933719],[-84.299593,33.937496],[-84.288076,33.939746],[-84.284317,33.940984],[-84.281132,33.942092],[-84.270943,33.946685],[-84.262731,33.951332],[-84.257799,33.954612],[-84.246124,33.96131],[-84.24519,33.961846],[-84.24186,33.964343],[-84.23737,33.967137],[-84.23737,34.012651],[-84.246809,34.010547],[-84.247424,34.010348],[-84.248289,34.008329],[-84.249635,34.006431],[-84.249979,34.006366],[-84.251188,34.004411],[-84.256588,33.997649],[-84.259098,33.995333],[-84.265383,33.988104],[-84.26803,33.985781],[-84.268771,33.984743],[-84.272573,33.981552],[-84.272566,33.981095],[-84.27897,33.977242],[-84.307131,33.962447],[-84.313261,33.95889],[-84.32074,33.953711],[-84.327958,33.949615],[-84.352854,33.937939],[-84.35285,33.937707],[-84.361569,33.932567],[-84.367231,33.930156],[-84.373583,33.927905],[-84.389927,33.923363],[-84.396338,33.920565],[-84.407359,33.914219],[-84.407694,33.913702],[-84.414886,33.908461],[-84.42046,33.905019],[-84.432589,33.899427],[-84.449255,33.890233],[-84.452803,33.888927],[-84.45473,33.889191],[-84.457062,33.89027],[-84.4706,33.882323]]]]}},
{"type":"Feature","properties":{"map_unit":"PZpCms","identity_confidence":"certain","source_map":"map52","source_unit":"52|q1"},"geometry":{"type":"MultiPolygon","coordinates":[[[[-84.4706,33.885495],[-84.4706,33.882323],[-84.457062,33.89027],[-84.45473,33.889191],[-84.452803,33.888927],[-84.449255,33.890233],[-84.432589,33.899427],[-84.42046,33.905019],[-84.414886,33.908461],[-84.407694,33.913702],[-84.407359,33.914219],[-84.396338,33.920565],[-84.389927,33.923363],[-84.373583,33.927905],[-84.367231,33.930156],[-84.361569,33.932567],[-84.35285,33.937707],[-84.352854,33.937939],[-84.327958,33.949615],[-84.32074,33.953711],[-84.313261,33.95889],[-84.307131,33.962447],[-84.27897,33.977242],[-84.272566,33.981095],[-84.272573,33.981552],[-84.268771,33.984743],[-84.26803,33.985781],[-84.265383,33.988104],[-84.259098,33.995333],[-84.256588,33.997649],[-84.251188,34.004411],[-84.249979,34.006366],[-84.249635,34.006431],[-84.248289,34.008329],[-84.247424,34.010348],[-84.246809,34.010547],[-84.247124,34.013211],[-84.249864,34.012496],[-84.250037,34.014905],[-84.250525,34.015242],[-84.25121,34.015062],[-84.256055,34.007907],[-84.258055,34.003707],[-84.258667,34.003237],[-84.264376,33.994186],[-84.267613,33.989909],[-84.273643,33.984119],[-84.279761,33.979645],[-84.319983,33.95801],[-84.333944,33.950007],[-84.353433,33.939769],[-84.354382,33.939013],[-84.361957,33.935313],[-84.363451,33.934267],[-84.37547,33.92983],[-84.388119,33.926102],[-84.394906,33.92323],[-84.401142,33.919857],[-84.408133,33.915298],[-84.421533,33.907522],[-84.441398,33.896515],[-84.452833,33.890648],[-84.455117,33.891345],[-84.451045,33.893594],[-84.442176,33.897823],[-84.426498,33.908662],[-84.413979,33.915746],[-84.408273,33.919478],[-84.397156,33.928259],[-84.396145,33.929478],[-84.394447,33.930699],[-84.387953,33.936734],[-84.384512,33.940496],[-84.381057,33.943458],[-84.380385,33.944442],[-84.374891,33.948802],[-84.369921,33.951666],[-84.362343,33.954787],[-84.345519,33.959516],[-84.334773,33.963122],[-84.308131,33.97355],[-84.307109,33.974192],[-84.28817,33.980987],[-84.283195,33.983786],[-84.281564,33.985065],[-84.278453,33.988477],[-84.27704,33.990498],[-84.275343,33.994124],[-84.274552,33.996365],[-84.273015,34.00435],[-84.271479,34.009063],[-84.269874,34.012171],[-84.267516,34.015288],[-84.260719,34.020752],[-84.257037,34.022906],[-84.25027,34.025844],[-84.245314,34.02844],[-84.253965,34.02844],[-84.261254,34.0243],[-84.264175,34.021801],[-84.270233,34.017609],[-84.272809,34.015174],[-84.275839,34.010844],[-84.277753,34.005613],[-84.28144,33.990396],[-84.283995,33.986643],[-84.286095,33.984675],[-84.288141,33.983561],[-84.296837,33.981292],[-84.310235,33.97628],[-84.331715,33.969621],[-84.342859,33.965773],[-84.365384,33.957046],[-84.375876,33.95215],[-84.381627,33.948837],[-84.388288,33.944343],[-84.394595,33.939463],[-84.398583,33.93546],[-84.404356,33.927488],[-84.406993,33.924934],[-84.411606,33.921559],[-84.433879,33.906516],[-84.46863,33.886956],[-84.468965,33.886498],[-84.4706,33.885495]]]]}},
{"type":"Feature","properties":{"map_unit":"PZpCm","identity_confidence":"certain","source_map":"map52","source_unit":"52|gg1"},"geometry":{"type":"MultiPolygon","coordinates":[[[[-84.23737,33.936121],[-84.23737,33.943875],[-84.239247,33.941058],[-84.239929,33.940651],[-84.239807,33.940045],[-84.240857,33.938468],[-84.245183,33.933608],[-84.245683,33.93257],[-84.238345,33.9358],[-84.23737,33.936121]]]]}},
{"type":"Feature","properties":{"map_unit":"PZpCm","identity_confidence":"certain","source_map":"map52","source_unit":"52|fg3"},"geometry":{"type":"MultiPolygon","coordinates":[[[[-84.4706,33.921096],[-84.4706,33.885495],[-84.468965,33.886498],[-84.46863,33.886956],[-84.433879,33.906516],[-84.411606,33.921559],[-84.406993,33.924934],[-84.404356,33.927488],[-84.398583,33.93546],[-84.394595,33.939463],[-84.388288,33.944343],[-84.381627,33.948837],[-84.375876,33.95215],[-84.365384,33.957046],[-84.342859,33.965773],[-84.331715,33.969621],[-84.310235,33.97628],[-84.296837,33.981292],[-84.288141,33.983561],[-84.286095,33.984675],[-84.283995,33.986643],[-84.28144,33.990396],[-84.277753,34.005613],[-84.275839,34.010844],[-84.272809,34.015174],[-84.270233,34.017609],[-84.264175,34.021801],[-84.261254,34.0243],[-84.253965,34.02844],[-84.267542,34.02844],[-84.268325,34.027888],[-84.274981,34.022201],[-84.284842,34.014936],[-84.285449,34.014181],[-84.291433,34.009707],[-84.295847,34.005935],[-84.304621,33.999767],[-84.31144,33.996028],[-84.320587,33.991746],[-84.323292,33.991987],[-84.324068,33.992343],[-84.335619,33.990086],[-84.362614,33.986251],[-84.383843,33.982719],[-84.391379,33.981084],[-84.398356,33.979029],[-84.400947,33.977762],[-84.402374,33.976779],[-84.404873,33.974171],[-84.409835,33.966775],[-84.412955,33.964329],[-84.4218,33.959072],[-84.43288,33.951838],[-84.442231,33.944217],[-84.443914,33.942191],[-84.449222,33.939318],[-84.453462,33.938176],[-84.454947,33.938507],[-84.455149,33.940334],[-84.455771,33.940557],[-84.458109,33.940639],[-84.459336,33.939943],[-84.465786,33.931729],[-84.465811,33.931158],[-84.464955,33.931337],[-84.464821,33.929682],[-84.46444,33.929398],[-84.463001,33.929704],[-84.4706,33.921096]],[[-84.347323,33.969733],[-84.332937,33.97723],[-84.323128,33.982884],[-84.322365,33.982959],[-84.324586,33.979496],[-84.34771,33.967755],[-84.371232,33.958573],[-84.3835,33.954029],[-84.390934,33.950504],[-84.393787,33.948524],[-84.418357,33.92652],[-84.423041,33.923315],[-84.423239,33.922911],[-84.431594,33.917312],[-84.442317,33.911036],[-84.446886,33.90796],[-84.457434,33.902333],[-84.461595,33.900678],[-84.46235,33.900663],[-84.462361,33.901299],[-84.461424,33.902745],[-84.460612,33.903382],[-84.437978,33.917005],[-84.430459,33.923224],[-84.423737,33.927885],[-84.422793,33.928819],[-84.415717,33.932966],[-84.410559,33.936697],[-84.409887,33.937501],[-84.408997,33.937798],[-84.409005,33.938148],[-84.401006,33.94466],[-84.39526,33.950281],[-84.391745,33.952131],[-84.38264,33.955981],[-84.371371,33.960294],[-84.364125,33.962672],[-84.347323,33.969733]]],[[[-84.4706,34.021288],[-84.4706,33.975317],[-84.467089,33.977938],[-84.466686,33.978517],[-84.453569,33.987044],[-84.451465,33.988675],[-84.448558,33.991574],[-84.446604,33.995664],[-84.442628,34.010324],[-84.4399,34.015572],[-84.438731,34.015578],[-84.438393,34.013926],[-84.437736,34.013758],[-84.43706,34.014398],[-84.435731,34.017112],[-84.434201,34.017262],[-84.43352,34.016559],[-84.432514,34.013702],[-84.431747,34.013431],[-84.431202,34.013838],[-84.430444,34.015566],[-84.429707,34.020794],[-84.427018,34.026382],[-84.425329,34.02844],[-84.467014,34.02844],[-84.468277,34.025309],[-84.4706,34.021288]]]]}},
{"type":"Feature","properties":{"map_unit":"PZpCm","identity_confidence":"certain","source_map":"map52","source_unit":"52|fg3"},"geometry":{"type":"MultiPolygon","coordinates":[[[[-84.302806,34.02844],[-84.35071,34.02844],[-84.352552,34.024965],[-84.356737,34.020044],[-84.357859,34.017168],[-84.357747,34.01459],[-84.357098,34.012704],[-84.356289,34.011565],[-84.355001,34.010663],[-84.351746,34.009266],[-84.341932,34.008082],[-84.339656,34.010264],[-84.331551,34.015166],[-84.328224,34.017511],[-84.326962,34.0194],[-84.325787,34.020453],[-84.322718,34.022084],[-84.31725,34.024215],[-84.302806,34.02844]]]]}}
]
}
